QIANFAN-17              
1 60395U 24140S   25342.95657280  .00000124  00000+0  17358-3 0  9995
2 60395  88.9767 299.8253 0013529 211.5163 148.5179 13.50976058 67627
QIANFAN-18              
1 60396U 24140T   25342.93599139  .00000105  00000+0  14468-3 0  9990
2 60396  88.9760 299.3613 0013346 192.4588 167.6235 13.50976013 67010
QIANFAN-19              
1 61552U 24185A   25342.90574596  .00000833  00000+0  42896-3 0  9995
2 61552  88.9822  78.3800 0005452 331.5708  28.5180 14.14290036 69129
QIANFAN-20              
1 61553U 24185B   25342.92347571  .00000887  00000+0  50593-3 0  9991
2 61553  88.9820  78.6980 0005781  17.7640 342.3745 14.08836802 68957
QIANFAN-21              
1 61554U 24185C   25342.95232477  .00001012  00000+0  44625-3 0  9993
2 61554  88.9737  77.4226 0011078  27.0198 333.1568 14.22599467 69437
QIANFAN-22              
1 61555U 24185D   25342.89211905  .00000304  00000+0  25178-3 0  9995
2 61555  88.9804  79.6671 0006750  25.2658 334.8842 13.86300645 68409
QIANFAN-23              
1 61556U 24185E   25342.88654217  .00000733  00000+0  36267-3 0  9999
2 61556  88.9814  78.1938 0006566 343.4684  16.6289 14.16286488 69201
QIANFAN-24              
1 61557U 24185F   25342.88790888  .00001095  00000+0  47288-3 0  9992
2 61557  88.9795  77.6049 0007743 319.7535  40.3083 14.23801983 69472
